[{"OBJECT_NAME":"APRIZESAT 4","OBJECT_ID":"2009-041D","EPOCH":"2026-03-09T17:20:05.268480","MEAN_MOTION":14.83708924,"ECCENTRICITY":0.00421139,"INCLINATION":98.1485,"RA_OF_ASC_NODE":142.0456,"ARG_OF_PERICENTER":284.5899,"MEAN_ANOMALY":75.0646,"EPHEMERIS_TYPE":0,"CLASSIFICATION_TYPE":"U","NORAD_CAT_ID":35684,"ELEMENT_SET_NO":999,"REV_AT_EPOCH":89661,"BSTAR":0.00013888514,"MEAN_MOTION_DOT":1.106e-5,"MEAN_MOTION_DDOT":0},{"OBJECT_NAME":"UNKNOWN","OBJECT_ID":"","EPOCH":"2026-03-03T02:32:57.853824","MEAN_MOTION":14.42023757,"ECCENTRICITY":0.01634289,"INCLINATION":98.2802,"RA_OF_ASC_NODE":180.3384,"ARG_OF_PERICENTER":86.9993,"MEAN_ANOMALY":274.9885,"EPHEMERIS_TYPE":0,"CLASSIFICATION_TYPE":"U","NORAD_CAT_ID":270098,"ELEMENT_SET_NO":999,"REV_AT_EPOCH":32563,"BSTAR":0.0019078749,"MEAN_MOTION_DOT":7.31e-5,"MEAN_MOTION_DDOT":0}]
